CTC1_L_00545024-03
1 84970U 25485XR  26037.47809028  .00000000  00000+0  00000-0 0  9997
2 84970  97.2000 276.0000 0000000   0.0000 228.0000 15.38683701    18
CTC1_L_00545024-04
1 84971U 24033SH  26037.47809028  .00000000  00000+0  00000-0 0  9996
2 84971  97.2000 276.0000 0000000   0.0000 273.0000 15.38683701    19
CTC1_L_00545024-05
1 84972U 23687JB  26037.47809028  .00000000  00000+0  00000-0 0  9991
2 84972  97.2000 276.0000 0000000   0.0000 318.0000 15.38683701    10
CTC1_L_00545024-06
1 84973U 23383II  26037.47809028  .00000000  00000+0  00000-0 0  9995
2 84973  97.2000 276.0000 0000000   0.0000   3.0000 15.38683701    12
CTC1_L_00545024-07
1 84974U 22577OU  26037.47809028  .00000000  00000+0  00000-0 0  9990
2 84974  97.2000 276.0000 0000000   0.0000  48.0000 15.38683701    12
CTC1_L_00545024-08
1 84975U 22710CO  26037.47809028  .00000000  00000+0  00000-0 0  9990
2 84975  97.2000 276.0000 0000000   0.0000  93.0000 15.38683701    13
CTC1_L_00545025-01
1 84976U 24113IQ  26037.47809028  .00000000  00000+0  00000-0 0  9990
2 84976  97.2000 288.0000 0000000   0.0000 144.0000 15.38683701    14
CTC1_L_00545025-02
1 84977U 25960QS  26037.47809028  .00000000  00000+0  00000-0 0  9992
2 84977  97.2000 288.0000 0000000   0.0000 189.0000 15.38683701    14
CTC1_L_00545025-03
1 84978U 22149FU  26037.47809028  .00000000  00000+0  00000-0 0  9999
2 84978  97.2000 288.0000 0000000   0.0000 234.0000 15.38683701    16
CTC1_L_00545025-04
1 84979U 26777FQ  26037.47809028  .00000000  00000+0  00000-0 0  9991
2 84979  97.2000 288.0000 0000000   0.0000 279.0000 15.38683701    16
CTC1_L_00545025-05
1 84980U 25704C   26037.47809028  .00000000  00000+0  00000-0 0  9992
2 84980  97.2000 288.0000 0000000   0.0000 324.0000 15.38683701    19
CTC1_L_00545025-06
1 84981U 26077SL  26037.47809028  .00000000  00000+0  00000-0 0  9997
2 84981  97.2000 288.0000 0000000   0.0000   9.0000 15.38683701    10
CTC1_L_00545025-07
1 84982U 25016PB  26037.47809028  .00000000  00000+0  00000-0 0  9990
2 84982  97.2000 288.0000 0000000   0.0000  54.0000 15.38683701    11
CTC1_L_00545025-08
1 84983U 26743RG  26037.47809028  .00000000  00000+0  00000-0 0  9999
2 84983  97.2000 288.0000 0000000   0.0000  99.0000 15.38683701    11
CTC1_L_00545026-01
1 84984U 22226AH  26037.47809028  .00000000  00000+0  00000-0 0  9992
2 84984  97.2000 300.0000 0000000   0.0000 150.0000 15.38683701    15
CTC1_L_00545026-02
1 84985U 24282AW  26037.47809028  .00000000  00000+0  00000-0 0  9997
2 84985  97.2000 300.0000 0000000   0.0000 195.0000 15.38683701    15
CTC1_L_00545026-03
1 84986U 26137XG  26037.47809028  .00000000  00000+0  00000-0 0  9999
2 84986  97.2000 300.0000 0000000   0.0000 240.0000 15.38683701    17
CTC1_L_00545026-04
1 84987U 23366K   26037.47809028  .00000000  00000+0  00000-0 0  9991
2 84987  97.2000 300.0000 0000000   0.0000 285.0000 15.38683701    17
CTC1_L_00545026-05
1 84988U 23862CW  26037.47809028  .00000000  00000+0  00000-0 0  9993
2 84988  97.2000 300.0000 0000000   0.0000 330.0000 15.38683701    19
CTC1_L_00545026-06
1 84989U 25474RC  26037.47809028  .00000000  00000+0  00000-0 0  9995
2 84989  97.2000 300.0000 0000000   0.0000  15.0000 15.38683701    10
CTC1_L_00545026-07
1 84990U 23521W   26037.47809028  .00000000  00000+0  00000-0 0  9998
2 84990  97.2000 300.0000 0000000   0.0000  60.0000 15.38683701    12
CTC1_L_00545026-08
1 84991U 22158H   26037.47809028  .00000000  00000+0  00000-0 0  9994
2 84991  97.2000 300.0000 0000000   0.0000 105.0000 15.38683701    13
CTC1_L_00545027-01
1 84992U 24336SW  26037.47809028  .00000000  00000+0  00000-0 0  9995
2 84992  97.2000 312.0000 0000000   0.0000 156.0000 15.38683701    13
CTC1_L_00545027-02
1 84993U 24477HI  26037.47809028  .00000000  00000+0  00000-0 0  9992
2 84993  97.2000 312.0000 0000000   0.0000 201.0000 15.38683701    15
CTC1_L_00545027-03
1 84994U 26956L   26037.47809028  .00000000  00000+0  00000-0 0  9997
2 84994  97.2000 312.0000 0000000   0.0000 246.0000 15.38683701    15
CTC1_L_00545027-04
1 84995U 26557YT  26037.47809028  .00000000  00000+0  00000-0 0  9995
2 84995  97.2000 312.0000 0000000   0.0000 291.0000 15.38683701    16
CTC1_L_00545027-05
1 84996U 25164OT  26037.47809028  .00000000  00000+0  00000-0 0  9999
2 84996  97.2000 312.0000 0000000   0.0000 336.0000 15.38683701    17
CTC1_L_00545027-06
1 84997U 24376TQ  26037.47809028  .00000000  00000+0  00000-0 0  9994
2 84997  97.2000 312.0000 0000000   0.0000  21.0000 15.38683701    19
CTC1_L_00545027-07
1 84998U 26789EX  26037.47809028  .00000000  00000+0  00000-0 0  9995
2 84998  97.2000 312.0000 0000000   0.0000  66.0000 15.38683701    19
CTC1_L_00545027-08
1 84999U 25961KE  26037.47809028  .00000000  00000+0  00000-0 0  9997
2 84999  97.2000 312.0000 0000000   0.0000 111.0000 15.38683701    11
CTC1_L_00545028-01
1 85000U 26801SB  26037.47809028  .00000000  00000+0  00000-0 0  9995
2 85000  97.2000 324.0000 0000000   0.0000 162.0000 15.38683701    14
CTC1_L_00545028-02
1 85001U 24785HP  26037.47809028  .00000000  00000+0  00000-0 0  9995
2 85001  97.2000 324.0000 0000000   0.0000 207.0000 15.38683701    15
CTC1_L_00545028-03
1 85002U 24748YY  26037.47809028  .00000000  00000+0  00000-0 0  9995
2 85002  97.2000 324.0000 0000000   0.0000 252.0000 15.38683701    16
CTC1_L_00545028-04
1 85003U 24490KK  26037.47809028  .00000000  00000+0  00000-0 0  9990
2 85003  97.2000 324.0000 0000000   0.0000 297.0000 15.38683701    16
CTC1_L_00545028-05
1 85004U 23883NV  26037.47809028  .00000000  00000+0  00000-0 0  9996
2 85004  97.2000 324.0000 0000000   0.0000 342.0000 15.38683701    18
CTC1_L_00545028-06
1 85005U 24252TX  26037.47809028  .00000000  00000+0  00000-0 0  9998
2 85005  97.2000 324.0000 0000000   0.0000  27.0000 15.38683701    19
CTC1_L_00545028-07
1 85006U 25369LX  26037.47809028  .00000000  00000+0  00000-0 0  9999
2 85006  97.2000 324.0000 0000000   0.0000  72.0000 15.38683701    10
CTC1_L_00545028-08
1 85007U 23632UC  26037.47809028  .00000000  00000+0  00000-0 0  9991
2 85007  97.2000 324.0000 0000000   0.0000 117.0000 15.38683701    11
CTC1_L_00545029-01
1 85008U 26887UE  26037.47809028  .00000000  00000+0  00000-0 0  9997
2 85008  97.2000 336.0000 0000000   0.0000 168.0000 15.38683701    11
CTC1_L_00545029-02
1 85009U 22435JO  26037.47809028  .00000000  00000+0  00000-0 0  9993
2 85009  97.2000 336.0000 0000000   0.0000 213.0000 15.38683701    13
CTC1_L_00545029-03
1 85010U 24150XE  26037.47809028  .00000000  00000+0  00000-0 0  9991
2 85010  97.2000 336.0000 0000000   0.0000 258.0000 15.38683701    14
CTC1_L_00545029-04
1 85011U 23226WG  26037.47809028  .00000000  00000+0  00000-0 0  9995
2 85011  97.2000 336.0000 0000000   0.0000 303.0000 15.38683701    16
CTC1_L_00545029-05
1 85012U 22278HE  26037.47809028  .00000000  00000+0  00000-0 0  9992
2 85012  97.2000 336.0000 0000000   0.0000 348.0000 15.38683701    16
CTC1_L_00545029-06
1 85013U 22553FR  26037.47809028  .00000000  00000+0  00000-0 0  9999
2 85013  97.2000 336.0000 0000000   0.0000  33.0000 15.38683701    18
CTC1_L_00545029-07
1 85014U 23305PQ  26037.47809028  .00000000  00000+0  00000-0 0  9996
2 85014  97.2000 336.0000 0000000   0.0000  78.0000 15.38683701    18
CTC1_L_00545029-08
1 85015U 22510FJ  26037.47809028  .00000000  00000+0  00000-0 0  9994
2 85015  97.2000 336.0000 0000000   0.0000 123.0000 15.38683701    10
CTC1_L_00545030-01
1 85016U 26715GV  26037.47809028  .00000000  00000+0  00000-0 0  9996
2 85016  97.2000 348.0000 0000000   0.0000 174.0000 15.38683701    10
CTC1_L_00545030-02
1 85017U 24942SI  26037.47809028  .00000000  00000+0  00000-0 0  9997
2 85017  97.2000 348.0000 0000000   0.0000 219.0000 15.38683701    11
CTC1_L_00545030-03
1 85018U 24078NN  26037.47809028  .00000000  00000+0  00000-0 0  9998
2 85018  97.2000 348.0000 0000000   0.0000 264.0000 15.38683701    12
CTC1_L_00545030-04
1 85019U 22444UI  26037.47809028  .00000000  00000+0  00000-0 0  9994
2 85019  97.2000 348.0000 0000000   0.0000 309.0000 15.38683701    13
CTC1_L_00545030-05
1 85020U 22530OM  26037.47809028  .00000000  00000+0  00000-0 0  9992
2 85020  97.2000 348.0000 0000000   0.0000 354.0000 15.38683701    15
CTC1_L_00545030-06
1 85021U 23565AH  26037.47809028  .00000000  00000+0  00000-0 0  9992
2 85021  97.2000 348.0000 0000000   0.0000  39.0000 15.38683701    16
CTC1_L_00545030-07
1 85022U 26056UL  26037.47809028  .00000000  00000+0  00000-0 0  9991
2 85022  97.2000 348.0000 0000000   0.0000  84.0000 15.38683701    17
CTC1_L_00545030-08
1 85023U 25160KU  26037.47809028  .00000000  00000+0  00000-0 0  9997
2 85023  97.2000 348.0000 0000000   0.0000 129.0000 15.38683701    18
